start=new Date('2022-05-31T00:00:00.000Z').valueOf();
sats=[{"TLE_LINE2":"2 52122  53.2174 149.6294 0001758  35.5723  48.0663 15.30193055  1300","BSTAR":"-0.02620900000000","OBJECT_ID":"2022-029AL","OBJECT_NAME":"STARLINK-3726","REF_FRAME":"TEME","GP_ID":"204981016","DECAY_DATE":null,"REV_AT_EPOCH":"130","MEAN_MOTION_DOT":"-0.00716199","FILE":"3472994","CENTER_NAME":"EARTH","ARG_OF_PERICENTER":"35.5723","SEMIMAJOR_AXIS":"6853.373","MEAN_MOTION":"15.30193055","PERIOD":"94.106","EPOCH":"2022-05-30T22:00:00.999936","NORAD_CAT_ID":"52122","RA_OF_ASC_NODE":"149.6294","ECCENTRICITY":"0.00017580","MEAN_ELEMENT_THEORY":"SGP4","MEAN_MOTION_DDOT":"0.0000000000000","COUNTRY_CODE":"US","INCLINATION":"53.2174","TIME_SYSTEM":"UTC","APOAPSIS":"476.443","OBJECT_TYPE":"PAYLOAD","LAUNCH_DATE":"2022-03-19","ELEMENT_SET_NO":"999","MEAN_ANOMALY":"48.0663","RCS_SIZE":"LARGE","EPHEMERIS_TYPE":"0","PERIAPSIS":"474.033","TLE_LINE1":"1 52122U 22029AL  22150.91667824 -.00716199  00000-0 -26209-1 0  9995","CLASSIFICATION_TYPE":"U","SITE":"AFETR"},{"MEAN_MOTION_DDOT":"0.0000000000000","MEAN_ELEMENT_THEORY":"SGP4","NORAD_CAT_ID":"52123","RA_OF_ASC_NODE":"144.6245","ECCENTRICITY":"0.00011710","PERIOD":"92.376","EPOCH":"2022-05-30T22:00:00.999936","PERIAPSIS":"390.213","TLE_LINE1":"1 52123U 22029AM  22150.91667824 -.00712164  00000-0 -98668-2 0  9993","SITE":"AFETR","CLASSIFICATION_TYPE":"U","RCS_SIZE":"LARGE","EPHEMERIS_TYPE":"0","COUNTRY_CODE":"US","INCLINATION":"53.2172","TIME_SYSTEM":"UTC","APOAPSIS":"391.799","LAUNCH_DATE":"2022-03-19","OBJECT_TYPE":"PAYLOAD","MEAN_ANOMALY":"245.8551","ELEMENT_SET_NO":"999","DECAY_DATE":null,"REV_AT_EPOCH":"130","MEAN_MOTION_DOT":"-0.00712164","REF_FRAME":"TEME","GP_ID":"204981220","OBJECT_ID":"2022-029AM","OBJECT_NAME":"STARLINK-3725","TLE_LINE2":"2 52123  53.2172 144.6245 0001171  66.9003 245.8551 15.58843151  1300","BSTAR":"-0.00986680000000","SEMIMAJOR_AXIS":"6769.141","MEAN_MOTION":"15.58843151","ARG_OF_PERICENTER":"66.9003","CENTER_NAME":"EARTH","FILE":"3472994"},{"RCS_SIZE":"LARGE","EPHEMERIS_TYPE":"0","COUNTRY_CODE":"US","INCLINATION":"53.2174","TIME_SYSTEM":"UTC","APOAPSIS":"475.258","LAUNCH_DATE":"2022-03-19","OBJECT_TYPE":"PAYLOAD","MEAN_ANOMALY":"66.8541","ELEMENT_SET_NO":"999","PERIAPSIS":"472.845","TLE_LINE1":"1 52124U 22029AN  22150.91667824 -.00717190  00000-0 -25925-1 0  9993","SITE":"AFETR","CLASSIFICATION_TYPE":"U","PERIOD":"94.081","EPOCH":"2022-05-30T22:00:00.999936","MEAN_ELEMENT_THEORY":"SGP4","MEAN_MOTION_DDOT":"0.0000000000000","NORAD_CAT_ID":"52124","RA_OF_ASC_NODE":"149.6412","ECCENTRICITY":"0.00017610","CENTER_NAME":"EARTH","FILE":"3472994","SEMIMAJOR_AXIS":"6852.187","MEAN_MOTION":"15.30590423","ARG_OF_PERICENTER":"36.6536","OBJECT_ID":"2022-029AN","OBJECT_NAME":"STARLINK-3684","BSTAR":"-0.02592500000000","TLE_LINE2":"2 52124  53.2174 149.6412 0001761  36.6536  66.8541 15.30590423  1305","DECAY_DATE":null,"REV_AT_EPOCH":"130","MEAN_MOTION_DOT":"-0.00717190","REF_FRAME":"TEME","GP_ID":"204980780"},{"CENTER_NAME":"EARTH","FILE":"3472994","MEAN_MOTION":"15.58847923","SEMIMAJOR_AXIS":"6769.127","ARG_OF_PERICENTER":"70.1447","OBJECT_NAME":"STARLINK-3727","OBJECT_ID":"2022-029AP","TLE_LINE2":"2 52125  53.2172 144.6320 0001154  70.1447 243.3405 15.58847923  1308","BSTAR":"-0.00986410000000","MEAN_MOTION_DOT":"-0.00712101","REV_AT_EPOCH":"130","DECAY_DATE":null,"GP_ID":"204981398","REF_FRAME":"TEME","EPHEMERIS_TYPE":"0","RCS_SIZE":"LARGE","ELEMENT_SET_NO":"999","MEAN_ANOMALY":"243.3405","OBJECT_TYPE":"PAYLOAD","LAUNCH_DATE":"2022-03-19","APOAPSIS":"391.773","TIME_SYSTEM":"UTC","COUNTRY_CODE":"US","INCLINATION":"53.2172","CLASSIFICATION_TYPE":"U","SITE":"AFETR","TLE_LINE1":"1 52125U 22029AP  22150.91667824 -.00712101  00000-0 -98641-2 0  9997","PERIAPSIS":"390.211","EPOCH":"2022-05-30T22:00:00.999936","PERIOD":"92.376","MEAN_MOTION_DDOT":"0.0000000000000","MEAN_ELEMENT_THEORY":"SGP4","ECCENTRICITY":"0.00011540","RA_OF_ASC_NODE":"144.6320","NORAD_CAT_ID":"52125"},{"CENTER_NAME":"EARTH","FILE":"3472994","MEAN_MOTION":"15.58838412","SEMIMAJOR_AXIS":"6769.155","ARG_OF_PERICENTER":"60.7213","OBJECT_NAME":"STARLINK-3732","OBJECT_ID":"2022-029AQ","TLE_LINE2":"2 52126  53.2172 144.6171 0001229  60.7213 251.3041 15.58838412  1300","BSTAR":"-0.00987010000000","MEAN_MOTION_DOT":"-0.00712275","DECAY_DATE":null,"REV_AT_EPOCH":"130","GP_ID":"204980680","REF_FRAME":"TEME","EPHEMERIS_TYPE":"0","RCS_SIZE":"LARGE","OBJECT_TYPE":"PAYLOAD","LAUNCH_DATE":"2022-03-19","ELEMENT_SET_NO":"999","MEAN_ANOMALY":"251.3041","INCLINATION":"53.2172","COUNTRY_CODE":"US","TIME_SYSTEM":"UTC","APOAPSIS":"391.852","CLASSIFICATION_TYPE":"U","SITE":"AFETR","PERIAPSIS":"390.188","TLE_LINE1":"1 52126U 22029AQ  22150.91667824 -.00712275  00000-0 -98701-2 0  9997","PERIOD":"92.376","EPOCH":"2022-05-30T22:00:00.999936","MEAN_MOTION_DDOT":"0.0000000000000","MEAN_ELEMENT_THEORY":"SGP4","ECCENTRICITY":"0.00012290","NORAD_CAT_ID":"52126","RA_OF_ASC_NODE":"144.6171"},{"NORAD_CAT_ID":"52127","RA_OF_ASC_NODE":"144.6387","ECCENTRICITY":"0.00011820","MEAN_ELEMENT_THEORY":"SGP4","MEAN_MOTION_DDOT":"0.0000000000000","PERIOD":"92.376","EPOCH":"2022-05-30T22:00:00.999936","PERIAPSIS":"390.189","TLE_LINE1":"1 52127U 22029AR  22150.91667824 -.00712192  00000-0 -98650-2 0  9999","SITE":"AFETR","CLASSIFICATION_TYPE":"U","COUNTRY_CODE":"US","INCLINATION":"53.2173","TIME_SYSTEM":"UTC","APOAPSIS":"391.789","OBJECT_TYPE":"PAYLOAD","LAUNCH_DATE":"2022-03-19","ELEMENT_SET_NO":"999","MEAN_ANOMALY":"249.0485","RCS_SIZE":"LARGE","EPHEMERIS_TYPE":"0","GP_ID":"204980883","REF_FRAME":"TEME","DECAY_DATE":null,"REV_AT_EPOCH":"130","MEAN_MOTION_DOT":"-0.00712192","TLE_LINE2":"2 52127  53.2173 144.6387 0001182  65.6118 249.0485 15.58848971  1304","BSTAR":"-0.00986500000000","OBJECT_ID":"2022-029AR","OBJECT_NAME":"STARLINK-3715","ARG_OF_PERICENTER":"65.6118","SEMIMAJOR_AXIS":"6769.124","MEAN_MOTION":"15.58848971","FILE":"3472994","CENTER_NAME":"EARTH"},{"EPHEMERIS_TYPE":"0","RCS_SIZE":"LARGE","OBJECT_TYPE":"PAYLOAD","LAUNCH_DATE":"2022-03-19","MEAN_ANOMALY":"249.3405","ELEMENT_SET_NO":"999","INCLINATION":"53.2173","COUNTRY_CODE":"US","APOAPSIS":"391.756","TIME_SYSTEM":"UTC","CLASSIFICATION_TYPE":"U","SITE":"AFETR","PERIAPSIS":"390.168","TLE_LINE1":"1 52129U 22029AT  22150.91667824 -.00712077  00000-0 -98597-2 0  9993","PERIOD":"92.375","EPOCH":"2022-05-30T22:00:00.999936","MEAN_ELEMENT_THEORY":"SGP4","MEAN_MOTION_DDOT":"0.0000000000000","ECCENTRICITY":"0.00011730","NORAD_CAT_ID":"52129","RA_OF_ASC_NODE":"144.6539","CENTER_NAME":"EARTH","FILE":"3472994","MEAN_MOTION":"15.58858524","SEMIMAJOR_AXIS":"6769.097","ARG_OF_PERICENTER":"66.7793","OBJECT_NAME":"STARLINK-3661","OBJECT_ID":"2022-029AT","BSTAR":"-0.00985970000000","TLE_LINE2":"2 52129  53.2173 144.6539 0001173  66.7793 249.3405 15.58858524  1306","MEAN_MOTION_DOT":"-0.00712077","DECAY_DATE":null,"REV_AT_EPOCH":"130","GP_ID":"204981117","REF_FRAME":"TEME"},{"CENTER_NAME":"EARTH","FILE":"3472994","SEMIMAJOR_AXIS":"6769.083","MEAN_MOTION":"15.58863358","ARG_OF_PERICENTER":"60.5385","OBJECT_ID":"2022-029AV","OBJECT_NAME":"STARLINK-3711","TLE_LINE2":"2 52131  53.2173 144.6614 0001201  60.5385 256.3110 15.58863358  1306","BSTAR":"-0.00985880000000","REV_AT_EPOCH":"130","DECAY_DATE":null,"MEAN_MOTION_DOT":"-0.00712143","REF_FRAME":"TEME","GP_ID":"204981322","RCS_SIZE":"LARGE","EPHEMERIS_TYPE":"0","TIME_SYSTEM":"UTC","APOAPSIS":"391.760","INCLINATION":"53.2173","COUNTRY_CODE":"US","ELEMENT_SET_NO":"999","MEAN_ANOMALY":"256.3110","OBJECT_TYPE":"PAYLOAD","LAUNCH_DATE":"2022-03-19","TLE_LINE1":"1 52131U 22029AV  22150.91667824 -.00712143  00000-0 -98588-2 0  9990","PERIAPSIS":"390.135","SITE":"AFETR","CLASSIFICATION_TYPE":"U","EPOCH":"2022-05-30T22:00:00.999936","PERIOD":"92.375","MEAN_ELEMENT_THEORY":"SGP4","MEAN_MOTION_DDOT":"0.0000000000000","RA_OF_ASC_NODE":"144.6614","NORAD_CAT_ID":"52131","ECCENTRICITY":"0.00012010"},{"SITE":"AFETR","CLASSIFICATION_TYPE":"U","TLE_LINE1":"1 52132U 22029AW  22150.91667824 -.00712173  00000-0 -98629-2 0  9990","PERIAPSIS":"390.170","EPHEMERIS_TYPE":"0","RCS_SIZE":"LARGE","ELEMENT_SET_NO":"999","MEAN_ANOMALY":"250.8553","LAUNCH_DATE":"2022-03-19","OBJECT_TYPE":"PAYLOAD","TIME_SYSTEM":"UTC","APOAPSIS":"391.781","INCLINATION":"53.2173","COUNTRY_CODE":"US","MEAN_MOTION_DDOT":"0.0000000000000","MEAN_ELEMENT_THEORY":"SGP4","ECCENTRICITY":"0.00011900","RA_OF_ASC_NODE":"144.6465","NORAD_CAT_ID":"52132","EPOCH":"2022-05-30T22:00:00.999936","PERIOD":"92.376","MEAN_MOTION":"15.58853759","SEMIMAJOR_AXIS":"6769.110","ARG_OF_PERICENTER":"64.5348","CENTER_NAME":"EARTH","FILE":"3472994","MEAN_MOTION_DOT":"-0.00712173","REV_AT_EPOCH":"130","DECAY_DATE":null,"GP_ID":"204981017","REF_FRAME":"TEME","OBJECT_NAME":"STARLINK-3718","OBJECT_ID":"2022-029AW","TLE_LINE2":"2 52132  53.2173 144.6465 0001190  64.5348 250.8553 15.58853759  1305","BSTAR":"-0.00986290000000"},{"ARG_OF_PERICENTER":"61.5262","MEAN_MOTION":"15.58872965","SEMIMAJOR_AXIS":"6769.055","FILE":"3472994","CENTER_NAME":"EARTH","REF_FRAME":"TEME","GP_ID":"204981221","MEAN_MOTION_DOT":"-0.00712199","DECAY_DATE":null,"REV_AT_EPOCH":"130","TLE_LINE2":"2 52133  53.2173 144.6765 0001212  61.5262 256.7825 15.58872965  1303","BSTAR":"-0.00985600000000","OBJECT_NAME":"STARLINK-3707","OBJECT_ID":"2022-029AX","CLASSIFICATION_TYPE":"U","SITE":"AFETR","PERIAPSIS":"390.099","TLE_LINE1":"1 52133U 22029AX  22150.91667824 -.00712199  00000-0 -98560-2 0  9993","LAUNCH_DATE":"2022-03-19","OBJECT_TYPE":"PAYLOAD","MEAN_ANOMALY":"256.7825","ELEMENT_SET_NO":"999","INCLINATION":"53.2173","COUNTRY_CODE":"US","TIME_SYSTEM":"UTC","APOAPSIS":"391.740","EPHEMERIS_TYPE":"0","RCS_SIZE":"LARGE","ECCENTRICITY":"0.00012120","NORAD_CAT_ID":"52133","RA_OF_ASC_NODE":"144.6765","MEAN_ELEMENT_THEORY":"SGP4","MEAN_MOTION_DDOT":"0.0000000000000","PERIOD":"92.374","EPOCH":"2022-05-30T22:00:00.999936"}];
